COMMENT,ORIGINATOR,NORAD_CAT_ID,OBJECT_NAME,OBJECT_TYPE,CLASSIFICATION_TYPE,INTLDES,EPOCH,EPOCH_MICROSECONDS,MEAN_MOTION,ECCENTRICITY,INCLINATION,RA_OF_ASC_NODE,ARG_OF_PERICENTER,MEAN_ANOMALY,EPHEMERIS_TYPE,ELEMENT_SET_NO,REV_AT_EPOCH,BSTAR,MEAN_MOTION_DOT,MEAN_MOTION_DDOT,FILE,TLE_LINE0,TLE_LINE1,TLE_LINE2,OBJECT_ID,OBJECT_NUMBER,SEMIMAJOR_AXIS,PERIOD,APOGEE,PERIGEE,DECAYED
"GENERATED VIA SPACETRACK.ORG API","18 SPCS","56232","FENGYUN 3G","PAYLOAD","U","23055A","2023-05-15 14:21:30","430368","15.53855962","0.0004305","50.0009","45.444","43.9357","20.6379","0","999","459","0.00059294","0.00038646","0","3908633","0 FENGYUN 3G","1 56232U 23055A   23135.59826887  .00038646  00000-0  59294-3 0  9999","2 56232  50.0009  45.4440 0004305  43.9357  20.6379 15.53855962  4592","2023-055A","56232","6783.617","92.673","408.403","402.562","0"
"GENERATED VIA SPACETRACK.ORG API","18 SPCS","56232","FENGYUN 3G","PAYLOAD","U","23055A","2023-05-15 20:45:01","34784","15.53873067","0.0004263","50.0008","44.0703","46.9713","68.5335","0","999","463","0.00058299","0.0003801","0","3908876","0 FENGYUN 3G","1 56232U 23055A   23135.86459531  .00038010  00000-0  58299-3 0  9996","2 56232  50.0008  44.0703 0004263  46.9713  68.5335 15.53873067  4634","2023-055A","56232","6783.567","92.672","408.324","402.541","0"
"GENERATED VIA SPACETRACK.ORG API","18 SPCS","56232","FENGYUN 3G","PAYLOAD","U","23055A","2023-05-16 06:07:45","615648","15.53900262","0.0004261","50.001","42.0518","47.1993","96.0597","0","999","469","0.00057658","0.00037622","0","3909157","0 FENGYUN 3G","1 56232U 23055A   23136.25538907  .00037622  00000-0  57658-3 0  9991","2 56232  50.0010  42.0518 0004261  47.1993  96.0597 15.53900262  4690","2023-055A","56232","6783.488","92.670","408.244","402.463","0"
"GENERATED VIA SPACETRACK.ORG API","18 SPCS","56232","FENGYUN 3G","PAYLOAD","U","23055A","2023-05-16 13:29:41","138880","15.53922205","0.0004271","50.0015","40.4674","49.512","11.8365","0","999","474","0.00057244","0.00037377","0","3909401","0 FENGYUN 3G","1 56232U 23055A   23136.56228170  .00037377  00000-0  57244-3 0  9991","2 56232  50.0015  40.4674 0004271  49.5120  11.8365 15.53922205  4744","2023-055A","56232","6783.424","92.669","408.187","402.392","0"
"GENERATED VIA SPACETRACK.ORG API","18 SPCS","56232","FENGYUN 3G","PAYLOAD","U","23055A","2023-05-16 13:29:41","138880","15.53922205","0.0004271","50.0015","40.4674","49.512","11.8365","0","999","474","0.00057244","0.00037377","0","3909472","0 FENGYUN 3G","1 56232U 23055A   23136.56228170  .00037377  00000-0  57244-3 0  9991","2 56232  50.0015  40.4674 0004271  49.5120  11.8365 15.53922205  4744","2023-055A","56232","6783.424","92.669","408.187","402.392","0"
"GENERATED VIA SPACETRACK.ORG API","18 SPCS","56232","FENGYUN 3G","PAYLOAD","U","23055A","2023-05-16 21:21:16","930656","15.53940549","0.0004099","50.0011","38.777","54.6643","40.1314","0","999","479","0.00055657","0.00036347","0","3909719","0 FENGYUN 3G","1 56232U 23055A   23136.88977929  .00036347  00000-0  55657-3 0  9991","2 56232  50.0011  38.7770 0004099  54.6643  40.1314 15.53940549  4797","2023-055A","56232","6783.371","92.668","408.017","402.456","0"
"GENERATED VIA SPACETRACK.ORG API","18 SPCS","56232","FENGYUN 3G","PAYLOAD","U","23055A","2023-05-16 21:21:16","930656","15.53940549","0.0004099","50.0011","38.777","54.6643","40.1314","0","999","479","0.00055657","0.00036347","0","3909742","0 FENGYUN 3G","1 56232U 23055A   23136.88977929  .00036347  00000-0  55657-3 0  9991","2 56232  50.0011  38.7770 0004099  54.6643  40.1314 15.53940549  4797","2023-055A","56232","6783.371","92.668","408.017","402.456","0"
"GENERATED VIA SPACETRACK.ORG API","18 SPCS","56232","FENGYUN 3G","PAYLOAD","U","23055A","2023-05-17 03:07:19","966080","15.53938477","0.0004055","49.9999","37.5446","49.9687","310.1636","0","999","483","0.00045783","0.00029787","0","3909893","0 FENGYUN 3G","1 56232U 23055A   23137.13009220  .00029787  00000-0  45783-3 0  9999","2 56232  49.9999  37.5446 0004055  49.9687 310.1636 15.53938477  4832","2023-055A","56232","6783.377","92.668","407.993","402.491","0"
"GENERATED VIA SPACETRACK.ORG API","18 SPCS","56232","FENGYUN 3G","PAYLOAD","U","23055A","2023-05-17 07:45:07","327872","15.53951367","0.0004029","49.9998","36.5477","50.7954","309.3371","0","999","486","0.00045363","0.00029523","0","3910237","0 FENGYUN 3G","1 56232U 23055A   23137.32300148  .00029523  00000-0  45363-3 0  9995","2 56232  49.9998  36.5477 0004029  50.7954 309.3371 15.53951367  4864","2023-055A","56232","6783.340","92.667","407.938","402.472","0"
"GENERATED VIA SPACETRACK.ORG API","18 SPCS","56232","FENGYUN 3G","PAYLOAD","U","23055A","2023-05-17 18:33:17","428032","15.53977976","0.0003972","50.0001","34.2249","53.4314","306.7019","0","999","493","0.00043248","0.00028147","0","3910366","0 FENGYUN 3G","1 56232U 23055A   23137.77311838  .00028147  00000-0  43248-3 0  9993","2 56232  50.0001  34.2249 0003972  53.4314 306.7019 15.53977976  4932","2023-055A","56232","6783.262","92.665","407.821","402.433","0"
"GENERATED VIA SPACETRACK.ORG API","18 SPCS","56232","FENGYUN 3G","PAYLOAD","U","23055A","2023-05-17 21:38:28","781664","15.53984478","0.000398","50.0001","33.5612","53.5886","306.5448","0","999","494","0.00042677","0.00027774","0","3910633","0 FENGYUN 3G","1 56232U 23055A   23137.90172201  .00027774  00000-0  42677-3 0  9997","2 56232  50.0001  33.5612 0003980  53.5886 306.5448 15.53984478  4942","2023-055A","56232","6783.243","92.665","407.808","402.409","0"
"GENERATED VIA SPACETRACK.ORG API","18 SPCS","56232","FENGYUN 3G","PAYLOAD","U","23055A","2023-05-18 02:16:15","680352","15.53996347","0.0003977","50.0002","32.5654","54.2478","305.8859","0","999","498","0.00043158","0.00028106","0","3910795","0 FENGYUN 3G","1 56232U 23055A   23138.09462593  .00028106  00000-0  43158-3 0  9999","2 56232  50.0002  32.5654 0003977  54.2478 305.8859 15.53996347  4989","2023-055A","56232","6783.209","92.664","407.771","402.376","0"
"GENERATED VIA SPACETRACK.ORG API","18 SPCS","56232","FENGYUN 3G","PAYLOAD","U","23055A","2023-05-18 06:54:02","456352","15.54006709","0.0003948","50","31.5693","55.3726","304.7613","0","999","501","0.00039814","0.00025894","0","3911188","0 FENGYUN 3G","1 56232U 23055A   23138.28752843  .00025894  00000-0  39814-3 0  9995","2 56232  50.0000  31.5693 0003948  55.3726 304.7613 15.54006709  5011","2023-055A","56232","6783.179","92.664","407.722","402.366","0"
"GENERATED VIA SPACETRACK.ORG API","18 SPCS","56232","FENGYUN 3G","PAYLOAD","U","23055A","2023-05-18 13:04:24","679776","15.54019927","0.0003914","49.9999","30.2413","56.9326","303.2018","0","999","504","0.00039483","0.00025687","0","3911221","0 FENGYUN 3G","1 56232U 23055A   23138.54473009  .00025687  00000-0  39483-3 0  9990","2 56232  49.9999  30.2413 0003914  56.9326 303.2018 15.54019927  5049","2023-055A","56232","6783.140","92.663","407.660","402.350","0"
"GENERATED VIA SPACETRACK.ORG API","18 SPCS","56232","FENGYUN 3G","PAYLOAD","U","23055A","2023-05-18 16:09:35","722368","15.54027219","0.0003916","50","29.5773","57.8087","302.326","0","999","507","0.00039637","0.00025796","0","3911364","0 FENGYUN 3G","1 56232U 23055A   23138.67333012  .00025796  00000-0  39637-3 0  9995","2 56232  50.0000  29.5773 0003916  57.8087 302.3260 15.54027219  5076","2023-055A","56232","6783.119","92.662","407.640","402.328","0"
"GENERATED VIA SPACETRACK.ORG API","18 SPCS","56232","FENGYUN 3G","PAYLOAD","U","23055A","2023-05-18 22:19:57","662400","15.54040268","0.000393","49.9998","28.25","58.5392","301.596","0","999","510","0.00039647","0.00025815","0","3911388","0 FENGYUN 3G","1 56232U 23055A   23138.93052850  .00025815  00000-0  39647-3 0  9995","2 56232  49.9998  28.2500 0003930  58.5392 301.5960 15.54040268  5107","2023-055A","56232","6783.081","92.662","407.612","402.280","0"
"GENERATED VIA SPACETRACK.ORG API","18 SPCS","56232","FENGYUN 3G","PAYLOAD","U","23055A","2023-05-19 01:25:08","562432","15.54046856","0.0003929","49.9998","27.5862","58.9052","301.2301","0","999","513","0.00039408","0.00025662","0","3911659","0 FENGYUN 3G","1 56232U 23055A   23139.05912688  .00025662  00000-0  39408-3 0  9998","2 56232  49.9998  27.5862 0003929  58.9052 301.2301 15.54046856  5133","2023-055A","56232","6783.062","92.661","407.592","402.262","0"
"GENERATED VIA SPACETRACK.ORG API","18 SPCS","56232","FENGYUN 3G","PAYLOAD","U","23055A","2023-05-19 04:30:19","354464","15.54056498","0.0003897","49.9997","26.9222","59.1429","300.9921","0","999","515","0.00041727","0.00027215","0","3911931","0 FENGYUN 3G","1 56232U 23055A   23139.18772401  .00027215  00000-0  41727-3 0  9992","2 56232  49.9997  26.9222 0003897  59.1429 300.9921 15.54056498  5159","2023-055A","56232","6783.034","92.661","407.542","402.255","0"
"GENERATED VIA SPACETRACK.ORG API","18 SPCS","56232","FENGYUN 3G","PAYLOAD","U","23055A","2023-05-19 18:23:46","407840","15.53814431","0.0005116","49.9997","23.9352","58.7581","301.3887","0","999","523","0.00045239","0.00029297","0","3912278","0 FENGYUN 3G","1 56232U 23055A   23139.76650935  .00029297  00000-0  45239-3 0  9997","2 56232  49.9997  23.9352 0005116  58.7581 301.3887 15.53814431  5233","2023-055A","56232","6783.738","92.675","409.074","402.133","0"
"GENERATED VIA SPACETRACK.ORG API","18 SPCS","56232","FENGYUN 3G","PAYLOAD","U","23055A","2023-05-20 02:06:47","602944","15.53830851","0.0005007","49.9992","22.2763","60.1053","300.0411","0","999","529","0.00043678","0.00028283","0","3912602","0 FENGYUN 3G","1 56232U 23055A   23140.08805096  .00028283  00000-0  43678-3 0  9993","2 56232  49.9992  22.2763 0005007  60.1053 300.0411 15.53830851  5295","2023-055A","56232","6783.690","92.674","408.952","402.159","0"
